[{"OBJECT_NAME":"IRIDIUM 173","OBJECT_ID":"2019-002D","EPOCH":"2026-03-04T16:09:46.773792","MEAN_MOTION":14.34214205,"ECCENTRICITY":0.0002034,"INCLINATION":86.3956,"RA_OF_ASC_NODE":37.2297,"ARG_OF_PERICENTER":80.3569,"MEAN_ANOMALY":279.7857,"EPHEMERIS_TYPE":0,"CLASSIFICATION_TYPE":"U","NORAD_CAT_ID":43925,"ELEMENT_SET_NO":999,"REV_AT_EPOCH":37397,"BSTAR":-0.00022197,"MEAN_MOTION_DOT":-6.02e-6,"MEAN_MOTION_DDOT":0},{"OBJECT_NAME":"IRIDIUM 169","OBJECT_ID":"2019-002E","EPOCH":"2026-03-04T17:02:17.316960","MEAN_MOTION":14.3861061,"ECCENTRICITY":0.0001543,"INCLINATION":86.4166,"RA_OF_ASC_NODE":68.8713,"ARG_OF_PERICENTER":76.1335,"MEAN_ANOMALY":284.0035,"EPHEMERIS_TYPE":0,"CLASSIFICATION_TYPE":"U","NORAD_CAT_ID":43926,"ELEMENT_SET_NO":999,"REV_AT_EPOCH":37520,"BSTAR":6.4302e-5,"MEAN_MOTION_DOT":2.17e-6,"MEAN_MOTION_DDOT":0},{"OBJECT_NAME":"IRIDIUM 172","OBJECT_ID":"2019-002F","EPOCH":"2026-03-04T19:21:34.915104","MEAN_MOTION":14.34217885,"ECCENTRICITY":0.0002374,"INCLINATION":86.3965,"RA_OF_ASC_NODE":37.1813,"ARG_OF_PERICENTER":86.5815,"MEAN_ANOMALY":273.5652,"EPHEMERIS_TYPE":0,"CLASSIFICATION_TYPE":"U","NORAD_CAT_ID":43927,"ELEMENT_SET_NO":999,"REV_AT_EPOCH":37400,"BSTAR":1.3223e-5,"MEAN_MOTION_DOT":5.7e-7,"MEAN_MOTION_DDOT":0},{"OBJECT_NAME":"IRIDIUM 175","OBJECT_ID":"2019-002G","EPOCH":"2026-03-04T06:43:31.135008","MEAN_MOTION":14.72246863,"ECCENTRICITY":0.00022594,"INCLINATION":86.1544,"RA_OF_ASC_NODE":335.2257,"ARG_OF_PERICENTER":111.0196,"MEAN_ANOMALY":249.1262,"EPHEMERIS_TYPE":0,"CLASSIFICATION_TYPE":"U","NORAD_CAT_ID":43928,"ELEMENT_SET_NO":999,"REV_AT_EPOCH":38380,"BSTAR":0.00011914936,"MEAN_MOTION_DOT":7.76e-6,"MEAN_MOTION_DDOT":0},{"OBJECT_NAME":"IRIDIUM 171","OBJECT_ID":"2019-002H","EPOCH":"2026-03-04T18:54:10.923552","MEAN_MOTION":14.34217195,"ECCENTRICITY":0.0001971,"INCLINATION":86.3969,"RA_OF_ASC_NODE":37.4845,"ARG_OF_PERICENTER":91.6974,"MEAN_ANOMALY":268.4447,"EPHEMERIS_TYPE":0,"CLASSIFICATION_TYPE":"U","NORAD_CAT_ID":43929,"ELEMENT_SET_NO":999,"REV_AT_EPOCH":37399,"BSTAR":-1.8909e-5,"MEAN_MOTION_DOT":-3.3e-7,"MEAN_MOTION_DDOT":0},{"OBJECT_NAME":"IRIDIUM 170","OBJECT_ID":"2019-002J","EPOCH":"2026-03-04T10:14:46.631904","MEAN_MOTION":14.72258957,"ECCENTRICITY":0.00026432,"INCLINATION":86.6082,"RA_OF_ASC_NODE":37.3259,"ARG_OF_PERICENTER":91.2509,"MEAN_ANOMALY":268.9011,"EPHEMERIS_TYPE":0,"CLASSIFICATION_TYPE":"U","NORAD_CAT_ID":43930,"ELEMENT_SET_NO":999,"REV_AT_EPOCH":38384,"BSTAR":0.00021680118,"MEAN_MOTION_DOT":1.392e-5,"MEAN_MOTION_DDOT":0},{"OBJECT_NAME":"IRIDIUM 167","OBJECT_ID":"2019-002K","EPOCH":"2026-03-04T20:25:30.854784","MEAN_MOTION":14.34217458,"ECCENTRICITY":0.000174,"INCLINATION":86.3962,"RA_OF_ASC_NODE":37.1847,"ARG_OF_PERICENTER":90.8823,"MEAN_ANOMALY":269.2572,"EPHEMERIS_TYPE":0,"CLASSIFICATION_TYPE":"U","NORAD_CAT_ID":43931,"ELEMENT_SET_NO":999,"REV_AT_EPOCH":37400,"BSTAR":-1.4688e-5,"MEAN_MOTION_DOT":-2.1e-7,"MEAN_MOTION_DDOT":0},{"OBJECT_NAME":"IRIDIUM 181","OBJECT_ID":"2023-068S","EPOCH":"2026-03-04T11:43:17.848992","MEAN_MOTION":14.4331517,"ECCENTRICITY":0.00026103,"INCLINATION":86.446,"RA_OF_ASC_NODE":100.5758,"ARG_OF_PERICENTER":97.9601,"MEAN_ANOMALY":262.1896,"EPHEMERIS_TYPE":0,"CLASSIFICATION_TYPE":"U","NORAD_CAT_ID":56726,"ELEMENT_SET_NO":999,"REV_AT_EPOCH":14733,"BSTAR":0.00013214939,"MEAN_MOTION_DOT":4.65e-6,"MEAN_MOTION_DDOT":0},{"OBJECT_NAME":"IRIDIUM 177","OBJECT_ID":"2023-068T","EPOCH":"2026-03-04T19:27:05.509152","MEAN_MOTION":14.80244341,"ECCENTRICITY":0.0002361,"INCLINATION":86.1996,"RA_OF_ASC_NODE":18.3378,"ARG_OF_PERICENTER":80.7956,"MEAN_ANOMALY":279.3532,"EPHEMERIS_TYPE":0,"CLASSIFICATION_TYPE":"U","NORAD_CAT_ID":56727,"ELEMENT_SET_NO":999,"REV_AT_EPOCH":15092,"BSTAR":0.00026712,"MEAN_MOTION_DOT":2.057e-5,"MEAN_MOTION_DDOT":0},{"OBJECT_NAME":"IRIDIUM 174","OBJECT_ID":"2023-068U","EPOCH":"2026-03-04T09:56:58.998336","MEAN_MOTION":14.72262153,"ECCENTRICITY":0.00025851,"INCLINATION":86.6092,"RA_OF_ASC_NODE":37.4681,"ARG_OF_PERICENTER":83.1939,"MEAN_ANOMALY":276.9572,"EPHEMERIS_TYPE":0,"CLASSIFICATION_TYPE":"U","NORAD_CAT_ID":56728,"ELEMENT_SET_NO":999,"REV_AT_EPOCH":15060,"BSTAR":0.00023568259,"MEAN_MOTION_DOT":1.511e-5,"MEAN_MOTION_DDOT":0},{"OBJECT_NAME":"IRIDIUM 178","OBJECT_ID":"2023-068V","EPOCH":"2026-03-04T17:34:04.003392","MEAN_MOTION":14.80231611,"ECCENTRICITY":0.0002365,"INCLINATION":86.6488,"RA_OF_ASC_NODE":69.0122,"ARG_OF_PERICENTER":99.2704,"MEAN_ANOMALY":260.8785,"EPHEMERIS_TYPE":0,"CLASSIFICATION_TYPE":"U","NORAD_CAT_ID":56729,"ELEMENT_SET_NO":999,"REV_AT_EPOCH":15091,"BSTAR":0.00013536,"MEAN_MOTION_DOT":1.055e-5,"MEAN_MOTION_DDOT":0},{"OBJECT_NAME":"IRIDIUM 179","OBJECT_ID":"2023-068W","EPOCH":"2026-03-04T10:56:56.837760","MEAN_MOTION":14.80240896,"ECCENTRICITY":0.00022627,"INCLINATION":86.6717,"RA_OF_ASC_NODE":77.8044,"ARG_OF_PERICENTER":93.6045,"MEAN_ANOMALY":266.5436,"EPHEMERIS_TYPE":0,"CLASSIFICATION_TYPE":"U","NORAD_CAT_ID":56730,"ELEMENT_SET_NO":999,"REV_AT_EPOCH":15087,"BSTAR":9.7817066e-5,"MEAN_MOTION_DOT":7.7e-6,"MEAN_MOTION_DDOT":0}]
