IRIDIUM 173             
1 43925U 19002D   26063.67345803 -.00000602  00000+0 -22197-3 0  9991
2 43925  86.3956  37.2297 0002034  80.3569 279.7857 14.34214205373972
IRIDIUM 169             
1 43926U 19002E   26063.70992265  .00000217  00000+0  64302-4 0  9991
2 43926  86.4166  68.8713 0001543  76.1335 284.0035 14.38610610375207
IRIDIUM 172             
1 43927U 19002F   26063.80665411  .00000057  00000+0  13223-4 0  9991
2 43927  86.3965  37.1813 0002374  86.5815 273.5652 14.34217885374003
IRIDIUM 175             
1 43928U 19002G   26063.28022147  .00000776  00000+0  11915-3 0  9990
2 43928  86.1544 335.2257 0002259 111.0196 249.1262 14.72246863383801
IRIDIUM 171             
1 43929U 19002H   26063.78762643 -.00000033  00000+0 -18909-4 0  9997
2 43929  86.3969  37.4845 0001971  91.6974 268.4447 14.34217195373998
IRIDIUM 170             
1 43930U 19002J   26063.42692861  .00001392  00000+0  21680-3 0  9990
2 43930  86.6082  37.3259 0002643  91.2509 268.9011 14.72258957383844
IRIDIUM 167             
1 43931U 19002K   26063.85105156 -.00000021  00000+0 -14688-4 0  9995
2 43931  86.3962  37.1847 0001740  90.8823 269.2572 14.34217458374004
IRIDIUM 181             
1 56726U 23068S   26063.48840103  .00000465  00000+0  13215-3 0  9999
2 56726  86.4460 100.5758 0002610  97.9601 262.1896 14.43315170147334
IRIDIUM 177             
1 56727U 23068T   26063.81048043  .00002057  00000+0  26712-3 0  9995
2 56727  86.1996  18.3378 0002361  80.7956 279.3532 14.80244341150924
IRIDIUM 174             
1 56728U 23068U   26063.41457174  .00001511  00000+0  23568-3 0  9991
2 56728  86.6092  37.4681 0002585  83.1939 276.9572 14.72262153150606
IRIDIUM 178             
1 56729U 23068V   26063.73199078  .00001055  00000+0  13536-3 0  9990
2 56729  86.6488  69.0122 0002365  99.2704 260.8785 14.80231611150917
IRIDIUM 179             
1 56730U 23068W   26063.45621340  .00000770  00000+0  97817-4 0  9991
2 56730  86.6717  77.8044 0002262  93.6045 266.5436 14.80240896150872
